{
    "links": {
        "self": "http://www.neowsapp.com/rest/v1/neo/3827153?api_key=iIulBulltgU6a56xZRHN4H3l9WmuAYTsLGpBGhQ2"
    },
    "id": "3827153",
    "neo_reference_id": "3827153",
    "name": "(2018 RE)",
    "designation": "2018 RE",
    "nasa_jpl_url": "http://ssd.jpl.nasa.gov/sbdb.cgi?sstr=3827153",
    "absolute_magnitude_h": 24.6,
    "estimated_diameter": {
        "kilometers": {
            "estimated_diameter_min": 0.0319561887,
            "estimated_diameter_max": 0.0714562102
        },
        "meters": {
            "estimated_diameter_min": 31.9561886721,
            "estimated_diameter_max": 71.4562101727
        },
        "miles": {
            "estimated_diameter_min": 0.0198566489,
            "estimated_diameter_max": 0.0444008168
        },
        "feet": {
            "estimated_diameter_min": 104.8431420431,
            "estimated_diameter_max": 234.436392583
        }
    },
    "is_potentially_hazardous_asteroid": false,
    "close_approach_data": [
        {
            "close_approach_date": "1953-07-17",
            "close_approach_date_full": "1953-Jul-17 07:37",
            "epoch_date_close_approach": -519409380000,
            "relative_velocity": {
                "kilometers_per_second": "8.0265694036",
                "kilometers_per_hour": "28895.6498529366",
                "miles_per_hour": "17954.6330988983"
            },
            "miss_distance": {
                "astronomical": "1.6696258419",
                "lunar": "649.4844524991",
                "kilometers": "249772469.645196753",
                "miles": "155201415.8522430714"
            },
            "orbiting_body": "Juptr"
        },
        {
            "close_approach_date": "2018-06-28",
            "close_approach_date_full": "2018-Jun-28 07:53",
            "epoch_date_close_approach": 1530172380000,
            "relative_velocity": {
                "kilometers_per_second": "16.9822081312",
                "kilometers_per_hour": "61135.9492722188",
                "miles_per_hour": "37987.5013686184"
            },
            "miss_distance": {
                "astronomical": "0.1072558585",
                "lunar": "41.7225289565",
                "kilometers": "16045247.976621395",
                "miles": "9970054.775089451"
            },
            "orbiting_body": "Venus"
        },
        {
            "close_approach_date": "2018-08-31",
            "close_approach_date_full": "2018-Aug-31 01:03",
            "epoch_date_close_approach": 1535677380000,
            "relative_velocity": {
                "kilometers_per_second": "23.5527142969",
                "kilometers_per_hour": "84789.7714689278",
                "miles_per_hour": "52685.0666107902"
            },
            "miss_distance": {
                "astronomical": "0.0152422363",
                "lunar": "5.9292299207",
                "kilometers": "2280206.084516681",
                "miles": "1416854.3605089578"
            },
            "orbiting_body": "Earth"
        }
    ],
    "orbital_data": {
        "orbit_id": "6",
        "orbit_determination_date": "2018-09-15 07:28:53",
        "first_observation_date": "2018-09-04",
        "last_observation_date": "2018-09-15",
        "data_arc_in_days": 11,
        "observations_used": 49,
        "orbit_uncertainty": "8",
        "minimum_orbit_intersection": ".000877549",
        "jupiter_tisserand_invariant": "3.198",
        "epoch_osculation": "2458368.5",
        "eccentricity": ".7504077926937179",
        "semi_major_axis": "2.228063844924622",
        "inclination": "4.055415633207347",
        "ascending_node_longitude": "153.2634104844243",
        "orbital_period": "1214.758296531728",
        "perihelion_distance": ".5561073730740581",
        "perihelion_argument": "90.57592158579081",
        "aphelion_distance": "3.900020316775186",
        "perihelion_time": "2458315.122652202478",
        "mean_anomaly": "15.81865730982972",
        "mean_motion": ".2963552511045536",
        "equinox": "J2000",
        "orbit_class": {
            "orbit_class_type": "APO",
            "orbit_class_description": "Near-Earth asteroid orbits which cross the Earth’s orbit similar to that of 1862 Apollo",
            "orbit_class_range": "a (semi-major axis) > 1.0 AU; q (perihelion) < 1.017 AU"
        }
    },
    "is_sentry_object": false
}